OBJECT_NAME,OBJECT_ID,EPOCH,MEAN_MOTION,ECCENTRICITY,INCLINATION,RA_OF_ASC_NODE,ARG_OF_PERICENTER,MEAN_ANOMALY,EPHEMERIS_TYPE,CLASSIFICATION_TYPE,NORAD_CAT_ID,ELEMENT_SET_NO,REV_AT_EPOCH,BSTAR,MEAN_MOTION_DOT,MEAN_MOTION_DDOT
IRIDIUM 135,2017-083A,2026-07-23T05:19:31.228608,14.34217176,.000212,86.3986,306.9539,95.1025,265.0413,0,U,43070,999,44931,-.17785405E-4,-.3E-6,0
IRIDIUM 138,2017-083B,2026-07-23T04:15:35.104032,14.34217905,.00020891,86.3999,306.6732,96.3457,263.7977,0,U,43071,999,44929,.34377494E-4,.116E-5,0
IRIDIUM 116,2017-083C,2026-07-23T05:10:23.246112,14.34218288,.0002541,86.3984,306.9419,96.4029,263.7456,0,U,43072,999,44933,.63233363E-4,.197E-5,0
IRIDIUM 130,2017-083D,2026-07-23T06:05:11.154048,14.34218537,.00023409,86.3993,307.2049,99.9467,260.1993,0,U,43073,999,44928,.46647483E-4,.15E-5,0
IRIDIUM 151,2017-083E,2026-07-23T03:48:11.144448,14.34218326,.00022819,86.3987,307.0243,94.8990,265.2467,0,U,43074,999,44929,.28764855E-4,.1E-5,0
IRIDIUM 134,2017-083F,2026-07-23T06:23:27.174336,14.34217550,.00021616,86.3987,306.9878,96.5992,263.5450,0,U,43075,999,44927,-.6603477E-5,.1E-7,0
IRIDIUM 137,2017-083G,2026-07-23T05:01:15.254976,14.34217628,.00025155,86.3988,307.1052,89.5289,270.6195,0,U,43076,999,44933,-.2826934E-5,.12E-6,0
IRIDIUM 141,2017-083H,2026-07-23T06:32:35.143872,14.34218605,.00021689,86.3984,306.9073,94.2616,265.8828,0,U,43077,999,44934,.56588444E-4,.178E-5,0
IRIDIUM 153,2017-083J,2026-07-23T03:43:15.392928,14.34217619,.0002045,86.3952,275.4337,96.7426,263.4003,0,U,43078,999,45043,.46898E-7,.2E-6,0
IRIDIUM 131,2017-083K,2026-07-23T06:14:19.157280,14.34218042,.00021991,86.3991,307.1010,93.3263,266.8184,0,U,43079,999,44927,.11241333E-4,.51E-6,0
IRIDIUM 144,2018-030A,2026-07-23T03:52:23.406528,14.34218078,.00024083,86.3950,275.3597,95.7209,264.4262,0,U,43249,999,43529,.33009866E-4,.112E-5,0
IRIDIUM 149,2018-030B,2026-07-23T04:01:31.403712,14.34217834,.00022305,86.3946,275.3235,93.8264,266.3186,0,U,43250,999,43531,.303226E-5,.28E-6,0
IRIDIUM 157,2018-030C,2026-07-23T04:28:55.409088,14.34218058,.00022607,86.3949,275.3695,94.6153,265.5301,0,U,43251,999,43529,.14840034E-4,.61E-6,0
IRIDIUM 140,2018-030D,2026-07-23T04:56:19.417920,14.34218150,.00022779,86.3949,275.3742,96.2263,263.9193,0,U,43252,999,43535,.25716328E-4,.92E-6,0
IRIDIUM 145,2018-030E,2026-07-23T04:38:03.487488,14.34217881,.00026009,86.3947,275.3513,95.9152,264.2341,0,U,43253,999,43528,.16443498E-4,.66E-6,0
IRIDIUM 146,2018-030F,2026-07-23T04:10:39.497664,14.34217657,.00023758,86.3949,275.3717,94.7434,265.4033,0,U,43254,999,43529,.4103424E-5,.31E-6,0
IRIDIUM 148,2018-030G,2026-07-23T05:05:27.421152,14.34218261,.00023116,86.3951,275.3996,92.9070,267.2390,0,U,43255,999,43533,.19566498E-4,.75E-6,0
IRIDIUM 142,2018-030H,2026-07-23T04:19:47.435232,14.34218575,.00024477,86.3947,275.3003,95.1380,265.0095,0,U,43256,999,43529,.55522342E-4,.175E-5,0
IRIDIUM 150,2018-030J,2026-07-23T03:34:07.514112,14.34217288,.00023539,86.3949,275.4310,95.7215,264.4249,0,U,43257,999,43531,.1566682E-5,.24E-6,0
IRIDIUM 143,2018-030K,2026-07-23T04:47:11.439744,14.34217840,.00023681,86.3952,275.5037,95.7304,264.4162,0,U,43258,999,43525,.1145753E-5,.23E-6,0
IRIDIUM 161,2018-047C,2026-07-23T03:38:27.627360,14.43278680,.00021178,86.4453,73.4288,80.7627,279.3814,0,U,43478,999,43032,.65752239E-4,.241E-5,0
IRIDIUM 152,2018-047D,2026-07-23T04:07:54.242112,14.34217250,.00019621,86.3924,73.2813,84.3346,275.8073,0,U,43479,999,42764,-.21741395E-4,-.41E-6,0
IRIDIUM 147,2018-047E,2026-07-23T04:17:02.272128,14.34217565,.00023057,86.3931,73.2848,87.0723,273.0736,0,U,43480,999,42764,-.3274492E-5,.11E-6,0
IRIDIUM 110,2018-047F,2026-07-23T04:26:10.088736,14.34217982,.00019639,86.3933,73.3750,79.0766,281.0651,0,U,43481,999,42763,.48662851E-4,.156E-5,0
IRIDIUM 162,2018-047G,2026-07-23T03:29:22.451136,14.43281520,.00021757,86.4453,73.3219,86.7843,273.3606,0,U,43482,999,43031,.6779507E-4,.248E-5,0
IRIDIUM 160,2018-061A,2026-07-23T06:29:06.366048,14.34218313,.00021874,86.3938,41.7027,87.0743,273.0703,0,U,43569,999,41854,.33486227E-4,.114E-5,0
IRIDIUM 166,2018-061B,2026-07-23T02:04:14.598048,14.34216809,.00021868,86.3931,41.7298,89.9295,270.2152,0,U,43570,999,41854,-.2450581E-4,-.49E-6,0
IRIDIUM 158,2018-061C,2026-07-23T06:19:58.411200,14.34218554,.00021101,86.3936,41.6652,89.6604,270.4834,0,U,43571,999,41853,.51296945E-4,.163E-5,0
IRIDIUM 165,2018-061D,2026-07-23T01:55:06.492864,14.34218168,.00022664,86.3941,41.7894,90.1387,270.0068,0,U,43572,999,41853,.39983297E-4,.132E-5,0
IRIDIUM 155,2018-061E,2026-07-23T06:01:42.426336,14.34217967,.00021983,86.3934,41.5848,91.0810,269.0638,0,U,43573,999,41852,.14436378E-4,.6E-6,0
